0 FENGYUN 1C DEB
1 30341U 99025ABC 13281.92758854  .00002182  00000-0  14133-2 0   920
2 30341 099.2388 332.5633 0071364 284.9237 147.6618 14.02599956343208
0 FENGYUN 1C DEB
1 30341U 99025ABC 13283.06782622  .00002493  00000-0  16108-2 0   937
2 30341 099.2387 333.7190 0071299 281.8124 145.1095 14.02604053343360
0 FENGYUN 1C DEB
1 30341U 99025ABC 13286.12556332  .00002289  00000-0  14806-2 0   952
2 30341 099.2390 336.8197 0071457 273.2775 104.9497 14.02617163343790
0 FENGYUN 1C DEB
1 30341U 99025ABC 13287.85174867  .00002843  00000-0  18318-2 0   961
2 30341 099.2390 338.5700 0071614 268.4044 181.3296 14.02625113344037
0 FENGYUN 1C DEB
1 30341U 99025ABC 13289.12164426  .00003003  00000-0  19324-2 0   971
2 30341 099.2386 339.8587 0071704 264.9661 113.5621 14.02632919344216
0 FENGYUN 1C DEB
1 30341U 99025ABC 13291.71150312  .00002656  00000-0  17118-2 0   981
2 30341 099.2375 342.4855 0071947 257.8147 231.0771 14.02646570344570
0 FENGYUN 1C DEB
1 30341U 99025ABC 13293.05378553  .00002820  00000-0  18153-2 0   993
2 30341 099.2369 343.8466 0072062 254.1072 168.9925 14.02651082344766
0 FENGYUN 1C DEB
1 30341U 99025ABC 13294.11706493  .00002935  00000-0  18881-2 0  1007
2 30341 099.2368 344.9247 0072194 251.1502 138.1093 14.02656410344917
0 FENGYUN 1C DEB
1 30341U 99025ABC 13295.70495799  .00002872  00000-0  18473-2 0  1015
2 30341 099.2368 346.5347 0072406 246.7949 236.2816 14.02664465345134
